{"version": 0.6, "generator": "Overpass API 0.7.62.8 e802775f", "osm3s": {"timestamp_osm_base": "2025-09-13T18:44:15Z", "copyright": "The data included in this document is from www.openstreetmap.org. The data is made available under ODbL."}, "elements": [{"type": "node", "id": 7013732543, "lat": 22.9584316, "lon": 76.0431938, "tags": {"addr:district": "Dewas", "addr:full": "127-A, Kalani Bag, Near Juneja Electronics", "addr:postcode": "455001", "addr:state": "Madhya Pradesh", "amenity": "hospital", "name": "Sanjivani Hospital, Dewas", "source": "OpenGovernmentData"}}, {"type": "node", "id": 7013865522, "lat": 22.9603345, "lon": 76.0449426, "tags": {"addr:district": "Dewas", "addr:full": "A-52, 53, Kalani Bagh, A.B,Road", "addr:postcode": "455001", "addr:state": "Madhya Pradesh", "amenity": "hospital", "name": "Sanskar Hospital and Research Center", "source": "OpenGovernmentData"}}, {"type": "node", "id": 7013865532, "lat": 22.9646935, "lon": 76.0465351, "tags": {"addr:district": "Dewas", "addr:full": "33 Hig Compound", "addr:postcode": "455001", "addr:state": "Madhya Pradesh", "amenity": "hospital", "name": "Shraddha Hospital Dewas", "source": "OpenGovernmentData"}}, {"type": "node", "id": 7014717646, "lat": 22.9673434, "lon": 76.0501957, "tags": {"addr:district": "Dewas", "addr:full": "4, Laxmi Park, Moti Bungalo", "addr:postcode": "455001", "addr:state": "Madhya Pradesh", "amenity": "hospital", "name": "Prabhu Prasad Chikitasalay", "source": "OpenGovernmentData"}}, {"type": "node", "id": 7015819685, "lat": 22.9623621, "lon": 76.0452242, "tags": {"addr:district": "Dewas", "addr:full": "33 Tarani Colony", "addr:postcode": "455001", "addr:state": "Madhya Pradesh", "amenity": "hospital", "name": "Prism Hospital And Research Centre Pvt. Ltd", "source": "OpenGovernmentData"}}, {"type": "node", "id": 7015896760, "lat": 22.9673026, "lon": 76.0489511, "tags": {"addr:district": "Dewas", "addr:full": "40, AB Rd, Shivaji Nagar,Moti Bunglow", "addr:postcode": "455001", "addr:state": "Madhya Pradesh", "amenity": "hospital", "name": "Gagrani Hospital", "source": "OpenGovernmentData"}}, {"type": "node", "id": 7015902977, "lat": 22.9668297, "lon": 76.0600407, "tags": {"addr:district": "Dewas", "addr:full": "231, AB Road,opposite Power House", "addr:postcode": "455001", "addr:state": "Madhya Pradesh", "amenity": "hospital", "name": "Dewas Hospital And Research Centre Pvt Ltd", "source": "OpenGovernmentData"}}, {"type": "node", "id": 7015932251, "lat": 22.9656838, "lon": 76.0488988, "tags": {"addr:district": "Dewas", "addr:full": "122,Civil Lines, Chouraha,A.B. Road", "addr:postcode": "455001", "addr:state": "Madhya Pradesh", "amenity": "hospital", "name": "Saluja Hospital", "source": "OpenGovernmentData"}}, {"type": "node", "id": 7015932278, "lat": 22.9615187, "lon": 76.0447186, "tags": {"addr:district": "Dewas", "addr:full": "46, Kalani Bagh,Tarane Colony, Near Vanmundal & Dargha", "addr:postcode": "455001", "addr:state": "Madhya Pradesh", "amenity": "hospital", "name": "Shri Ram Hospital, Dewas", "source": "OpenGovernmentData"}}, {"type": "node", "id": 7015935788, "lat": 22.9610631, "lon": 76.0500797, "tags": {"addr:district": "Dewas", "addr:full": "Behind Chimnabai School", "addr:postcode": "455001", "addr:state": "Madhya Pradesh", "amenity": "hospital", "name": "Khare Nursing Home And Maternity Home", "source": "OpenGovernmentData"}}, {"type": "node", "id": 7015948923, "lat": 22.9620152, "lon": 76.0482135, "tags": {"addr:district": "Dewas", "addr:full": "Dewas", "addr:postcode": "455001", "addr:state": "Madhya Pradesh", "amenity": "hospital", "name": "Mahatma Gandhi District Hospital", "name:etymology:wikidata": "Q1001", "source": "OpenGovernmentData"}}, {"type": "node", "id": 7016096486, "lat": 22.9568775, "lon": 76.0417119, "tags": {"addr:district": "Dewas", "addr:full": "177 A, Kalani Bagh, A.B.Road, Infront Of New Court", "addr:postcode": "455001", "addr:state": "Madhya Pradesh", "amenity": "hospital", "name": "Apex Care Hospital and Research Centre Pvt Ltd", "source": "OpenGovernmentData"}}, {"type": "node", "id": 7016440715, "lat": 22.9652553, "lon": 76.0461885, "tags": {"addr:district": "Dewas", "addr:full": "7, Civil Lines, Mendki Road", "addr:postcode": "455115", "addr:state": "Madhya Pradesh", "amenity": "hospital", "name": "Vinayak Hospital, Dewas", "source": "OpenGovernmentData"}}, {"type": "node", "id": 7288502774, "lat": 22.974578, "lon": 76.041382, "tags": {"addr:district": "Dewas", "addr:full": "Triveni Nagar, Arsenal Secondary School, Dewas", "addr:postcode": "455001", "addr:state": "Madhya Pradesh", "amenity": "hospital", "name": "Bima Hospital", "source": "OpenGovernmentData"}}, {"type": "node", "id": 7288502849, "lat": 22.9618173, "lon": 76.0420396, "tags": {"addr:district": "Dewas", "addr:full": "Pachunkar Colony, Panchsheel Nagar, Dewas", "addr:postcode": "455001", "addr:state": "Madhya Pradesh", "amenity": "hospital", "name": "Dr PK Pandya", "source": "OpenGovernmentData"}}]}