{"version": 0.6, "generator": "Overpass API 0.7.62.8 e802775f", "osm3s": {"timestamp_osm_base": "2025-09-11T19:41:22Z", "copyright": "The data included in this document is from www.openstreetmap.org. The data is made available under ODbL."}, "elements": [{"type": "node", "id": 3774564938, "lat": 21.2414376, "lon": 81.6232005, "tags": {"addr:city": "Raipur", "addr:postcode": "492001", "addr:street": "budhapara", "amenity": "hospital", "description": "hospital", "emergency": "yes", "healthcare": "hospital", "name": "bagri nursing home", "operator": "nursing"}}, {"type": "node", "id": 3774667456, "lat": 21.2502537, "lon": 81.6383325}, {"type": "node", "id": 3774669568, "lat": 21.2507721, "lon": 81.6387686}, {"type": "node", "id": 3774669575, "lat": 21.2515835, "lon": 81.6404774}, {"type": "node", "id": 4445104811, "lat": 21.2130814, "lon": 81.6537238, "tags": {"addr:city": "Raipur", "addr:district": "Raipur", "addr:full": "(Ramkrishna Care Medical Sciences Pvt Ltd) Aurobindo Enclave,Pachpedi Naka,Dhamatri Road", "addr:postcode": "492001", "addr:state": "Chhattisgarh", "addr:street": "Aurobindo Enclave, Pachpedi Naka, Dhamtari Road, NH43,", "amenity": "hospital", "emergency": "no", "name": "Ramkrishna Care Hospital", "phone": "+91 7713003300", "source": "OpenGovernmentData", "website": "https://www.carehospitals.com/"}}, {"type": "node", "id": 4445112827, "lat": 21.2132613, "lon": 81.657736, "tags": {"addr:city": "Raipur", "addr:district": "Raipur", "addr:full": "Dhamtari Road, Lalpur Near Pachpedi Naka", "addr:postcode": "492015", "addr:state": "Chhattisgarh", "addr:street": "Dhamtari Road, Lalpur", "amenity": "hospital", "emergency": "yes", "name": "Narayana Hrudayalaya Mmi Hospital (Managed By Narayana Hrudayalaya Pvt Ltd - Bangalore) - Raipur", "phone": "+91 7714210901", "source": "OpenGovernmentData"}}, {"type": "node", "id": 4445113471, "lat": 21.2584938, "lon": 81.6060273, "tags": {"addr:city": "Raipur", "addr:district": "Raipur", "addr:full": "Kota Gudhiyari Road, Behind Hotel Piccadilly", "addr:postcode": "492010", "addr:state": "Chhattisgarh", "addr:street": "Gudhiyari Road, Behind hotel piccadily, kota", "amenity": "hospital", "contact:phone": "7712575833", "emergency": "yes", "name": "Suyash Superspeciality Hospital", "phone": "+91 7712575275", "source": "OpenGovernmentData", "website": "www.suyashhospitalsraipur.com"}}, {"type": "node", "id": 4445119946, "lat": 21.2131689, "lon": 81.6561777, "tags": {"addr:city": "Raipur", "addr:postcode": "492001", "addr:street": "Infront of colors mall, Dhamtari road", "amenity": "hospital", "emergency": "yes", "name": "Shri Ganesh Vinayak Eye Hospital", "phone": "+91 7714077741", "website": "https://sgveh.com/"}}, {"type": "node", "id": 4445137285, "lat": 21.2349337, "lon": 81.6413322, "tags": {"addr:city": "Raipur", "addr:district": "Raipur", "addr:full": "Opposite Ashirwad Bhawan, Byron Bazar", "addr:postcode": "492001", "addr:state": "Chhattisgarh", "addr:street": "Near mahila police thane, byron bazar road", "amenity": "hospital", "emergency": "yes", "name": "Bal Gopal Children Hospital and Research Institute", "phone": "+91 7714225600", "source": "OpenGovernmentData", "website": "www.balgopalhospital.in"}}, {"type": "node", "id": 4445146001, "lat": 21.2403202, "lon": 81.6293508, "tags": {"addr:city": "Raipur", "addr:postcode": "492001", "addr:street": "TatyaparaChowk, GE road, Tatyapara Raipur", "amenity": "hospital", "name": "Yashwant Hospital", "phone": "+91 7712539333", "website": "https://www.vyhospital.in/"}}, {"type": "node", "id": 4629903316, "lat": 21.248706, "lon": 81.6385835}, {"type": "node", "id": 4629903317, "lat": 21.2490023, "lon": 81.6408749}, {"type": "node", "id": 4714398161, "lat": 21.2274864, "lon": 81.6480755, "tags": {"amenity": "hospital", "name": "jain mandir"}}, {"type": "node", "id": 4714398175, "lat": 21.2278656, "lon": 81.6484364, "tags": {"amenity": "hospital", "name": "chandak hospital"}}, {"type": "node", "id": 4714658051, "lat": 21.2506345, "lon": 81.649911, "tags": {"amenity": "hospital", "name": "sukriti hospital"}}, {"type": "node", "id": 5546788134, "lat": 21.2348856, "lon": 81.6260892}, {"type": "node", "id": 5546788135, "lat": 21.2346705, "lon": 81.6260677}, {"type": "node", "id": 5546788136, "lat": 21.2345955, "lon": 81.6263252}, {"type": "node", "id": 5546788137, "lat": 21.2348206, "lon": 81.6263413}, {"type": "node", "id": 5546788138, "lat": 21.2348506, "lon": 81.6262072}, {"type": "node", "id": 5556568170, "lat": 21.2284143, "lon": 81.6545326, "tags": {"addr:district": "Raipur", "addr:full": "C-63, Shailendra Nagar, Near Rajendra Nagar Police Chowki", "addr:postcode": "492001", "addr:state": "Chhattisgarh", "amenity": "hospital", "healthcare": "hospital", "name": "Navkar Hospital and Maternity Home", "source": "OpenGovernmentData"}}, {"type": "node", "id": 5559371187, "lat": 21.2454926, "lon": 81.6491646}, {"type": "node", "id": 5559371188, "lat": 21.2455914, "lon": 81.6492065}, {"type": "node", "id": 5559371189, "lat": 21.2456137, "lon": 81.6491034}, {"type": "node", "id": 5559371190, "lat": 21.2455107, "lon": 81.6490781}, {"type": "node", "id": 6022759660, "lat": 21.2342393, "lon": 81.6118512, "tags": {"amenity": "hospital", "healthcare": "hospital"}}, {"type": "node", "id": 6950645749, "lat": 21.2392112, "lon": 81.6621937, "tags": {"addr:district": "Raipur", "addr:full": "Near Shyam Nagar", "addr:postcode": "492001", "addr:state": "Chhattisgarh", "amenity": "hospital", "name": "Chhattisgarh Eye Hospital", "source": "OpenGovernmentData"}}, {"type": "node", "id": 6950645773, "lat": 21.2233136, "lon": 81.6522994, "tags": {"addr:district": "Raipur", "addr:full": "B-19/5 Ring Road Tagore Nagar", "addr:postcode": "492001", "addr:state": "Chhattisgarh", "amenity": "hospital", "name": "Devi Laxmi Hospital", "source": "OpenGovernmentData"}}, {"type": "node", "id": 6950646487, "lat": 21.2142649, "lon": 81.6503232, "tags": {"addr:district": "Raipur", "addr:full": "Infront Of Jain Mandir, Near Ramkrishna Care Hospital,Dawada Colony,Pachpedi Naka", "addr:postcode": "492001", "addr:state": "Chhattisgarh", "amenity": "hospital", "name": "Sanjeevani Cbcc Usa Cancer Hospital", "source": "OpenGovernmentData"}}, {"type": "node", "id": 6953541281, "lat": 21.2346486, "lon": 81.6077931, "tags": {"addr:district": "Raipur", "addr:full": "Danganiya Near Shitla Mandir", "addr:postcode": "492001", "addr:state": "Chhattisgarh", "amenity": "hospital", "name": "Aashirwad Fertility and Endoscopy Center", "source": "OpenGovernmentData"}}, {"type": "node", "id": 6956627650, "lat": 21.2352073, "lon": 81.6418236, "tags": {"addr:district": "Raipur", "addr:full": "Behind Aashirwad Bhawan,Byron Bazar", "addr:postcode": "492001", "addr:state": "Chhattisgarh", "amenity": "hospital", "name": "Sai Sushrusha Hospital", "source": "OpenGovernmentData"}}, {"type": "node", "id": 6956627660, "lat": 21.2595225, "lon": 81.6370104, "tags": {"addr:district": "Raipur", "addr:full": "Near Choti Line, Fafadih", "addr:postcode": "492001", "addr:state": "Chhattisgarh", "amenity": "hospital", "name": "Sai Baba Eye Hospital", "source": "OpenGovernmentData"}}, {"type": "node", "id": 6956629796, "lat": 21.2454024, "lon": 81.6468099, "tags": {"addr:district": "Raipur", "addr:full": "Raja Talab Road, Near Ghari Chowk", "addr:postcode": "492001", "addr:state": "Chhattisgarh", "amenity": "hospital", "name": "Piles Care Hospital", "source": "OpenGovernmentData"}}, {"type": "node", "id": 6956629801, "lat": 21.2248204, "lon": 81.6595718, "tags": {"addr:district": "Raipur", "addr:full": "Opposite Vijayta Complex. Main Road, New Rajendra Nagar", "addr:postcode": "492001", "addr:state": "Chhattisgarh", "amenity": "hospital", "name": "Tharani Children Hospital And Dental Clinic", "source": "OpenGovernmentData"}}, {"type": "node", "id": 6956629810, "lat": 21.2439374, "lon": 81.6145067, "tags": {"addr:district": "Raipur", "addr:full": "7, South Avenue, Choubey Colony", "addr:postcode": "492001", "addr:state": "Chhattisgarh", "amenity": "hospital", "name": "Dr. M.R. Bhagwat Memorial Hospital", "source": "OpenGovernmentData"}}, {"type": "node", "id": 6956629815, "lat": 21.2166146, "lon": 81.6572553, "tags": {"addr:district": "Raipur", "addr:full": "G.E. Road,Choubey Colony", "addr:postcode": "492001", "addr:state": "Chhattisgarh", "amenity": "hospital", "name": "Kalda Plastic and Cosmetic Surgery Institute and Burn Centre", "source": "OpenGovernmentData"}}, {"type": "node", "id": 6956629976, "lat": 21.2491409, "lon": 81.6617082, "tags": {"addr:district": "Raipur", "addr:full": "Shankar Nagar Main Road", "addr:postcode": "492007", "addr:state": "Chhattisgarh", "amenity": "hospital", "name": "Vidya Hospital And Kidney Centre", "source": "OpenGovernmentData"}}, {"type": "node", "id": 6956655133, "lat": 21.2145777, "lon": 81.6542597, "tags": {"addr:district": "Raipur", "addr:full": "Pachmedi Naka, Dhamtari Road", "addr:postcode": "492001", "addr:state": "Chhattisgarh", "amenity": "hospital", "name": "Shri Aurobindo Medical Research Centre", "source": "OpenGovernmentData"}}, {"type": "node", "id": 6957120029, "lat": 21.2391162, "lon": 81.6413422, "tags": {"addr:district": "Raipur", "addr:full": "Opposite Subhash Stadium", "addr:postcode": "492001", "addr:state": "Chhattisgarh", "amenity": "hospital", "name": "Visharad Hospital", "source": "OpenGovernmentData"}}, {"type": "node", "id": 6957120034, "lat": 21.2582818, "lon": 81.6553302, "tags": {"addr:district": "Raipur", "addr:full": "Behind Cg Elite Building, Ashoka Gali, Pandari", "addr:postcode": "492001", "addr:state": "Chhattisgarh", "amenity": "hospital", "name": "Urmila Memorial Multispeciality Hospital", "source": "OpenGovernmentData"}}, {"type": "node", "id": 6957120057, "lat": 21.2599874, "lon": 81.6282919, "tags": {"addr:district": "Raipur", "addr:full": "Near Shukrari Bazar, Gudhiyari", "addr:postcode": "492001", "addr:state": "Chhattisgarh", "amenity": "hospital", "name": "Subham Hospital and Maternity Home", "source": "OpenGovernmentData"}}, {"type": "node", "id": 6957120062, "lat": 21.2570692, "lon": 81.6373428, "tags": {"addr:district": "Raipur", "addr:full": "Near Hotel Celebration, Bastar Bada, Bastar Bada Jail Road", "addr:postcode": "492009", "addr:state": "Chhattisgarh", "amenity": "hospital", "name": "Subba Rao Hospital", "source": "OpenGovernmentData"}}, {"type": "node", "id": 6957120082, "lat": 21.2361049, "lon": 81.6117065, "tags": {"addr:district": "Raipur", "addr:full": "Daganiya Road, Sundar Nagar Road", "addr:postcode": "492001", "addr:state": "Chhattisgarh", "amenity": "hospital", "name": "Shri Ram Hospital, Raipur", "source": "OpenGovernmentData"}}, {"type": "node", "id": 6957503652, "lat": 21.2259317, "lon": 81.6585526, "tags": {"addr:district": "Raipur", "addr:full": "New Rajendra Nagar", "addr:postcode": "492001", "addr:state": "Chhattisgarh", "amenity": "hospital", "name": "Gbg Kidney Care Hospital", "source": "OpenGovernmentData"}}, {"type": "node", "id": 6965495354, "lat": 21.2462123, "lon": 81.6186909, "tags": {"addr:district": "Raipur", "addr:full": "Samta Colony, Main Road", "addr:postcode": "492001", "addr:state": "Chhattisgarh", "amenity": "hospital", "name": "Modi Hospital", "source": "OpenGovernmentData"}}, {"type": "node", "id": 6965495359, "lat": 21.2461698, "lon": 81.6239078, "tags": {"addr:district": "Raipur", "addr:full": "B-4 Samta Colony Main Road", "addr:postcode": "492001", "addr:state": "Chhattisgarh", "amenity": "hospital", "name": "Jagjivan Urology Centre", "source": "OpenGovernmentData"}}, {"type": "node", "id": 6965495374, "lat": 21.2230452, "lon": 81.656616, "tags": {"addr:district": "Raipur", "addr:full": "Tagore Nagar Square", "addr:postcode": "492001", "addr:state": "Chhattisgarh", "amenity": "hospital", "name": "Sahai Hospital", "source": "OpenGovernmentData"}}, {"type": "node", "id": 6965495384, "lat": 21.2443828, "lon": 81.6601836, "tags": {"addr:district": "Raipur", "addr:full": "13, Anand Nagar", "addr:postcode": "492001", "addr:state": "Chhattisgarh", "amenity": "hospital", "name": "Pragya Hospital, Raipur", "source": "OpenGovernmentData"}}, {"type": "node", "id": 6965497699, "lat": 21.2472973, "lon": 81.6568963, "tags": {"addr:district": "Raipur", "addr:full": "Shanti Nagar", "addr:postcode": "492001", "addr:state": "Chhattisgarh", "amenity": "hospital", "name": "Nigam Ent Hospital", "source": "OpenGovernmentData"}}, {"type": "node", "id": 6965497709, "lat": 21.2458836, "lon": 81.6474972, "tags": {"addr:district": "Raipur", "addr:full": "Rajatalab Road", "addr:postcode": "492001", "addr:state": "Chhattisgarh", "amenity": "hospital", "name": "Ganpati Hospital (Banthia Hospital)", "source": "OpenGovernmentData"}}, {"type": "node", "id": 6965497714, "lat": 21.2399062, "lon": 81.62751, "tags": {"addr:district": "Raipur", "addr:full": "Tatyapara", "addr:postcode": "492001", "addr:state": "Chhattisgarh", "amenity": "hospital", "healthcare": "hospital", "name": "Yashwant Hospital, Raipur", "source": "OpenGovernmentData"}}, {"type": "node", "id": 6965497719, "lat": 21.2495084, "lon": 81.6579813, "tags": {"addr:district": "Raipur", "addr:full": "New Shanti Nagar", "addr:postcode": "492001", "addr:state": "Chhattisgarh", "amenity": "hospital", "name": "Tripathi Hospital, Raipur", "source": "OpenGovernmentData"}}, {"type": "node", "id": 6965497724, "lat": 21.2496099, "lon": 81.6580936, "tags": {"addr:district": "Raipur", "addr:full": "New Shanti Nagar", "addr:postcode": "492001", "addr:state": "Chhattisgarh", "amenity": "hospital", "name": "Jeewan Memorial Hospital For Plastic Surgery and Uro", "source": "OpenGovernmentData"}}, {"type": "node", "id": 6965497729, "lat": 21.2487035, "lon": 81.6448975, "tags": {"addr:district": "Raipur", "addr:full": "Main Road Pandri", "addr:postcode": "492001", "addr:state": "Chhattisgarh", "amenity": "hospital", "name": "Om Netra Kendra", "source": "OpenGovernmentData"}}, {"type": "node", "id": 6965497734, "lat": 21.2567003, "lon": 81.6410096, "tags": {"addr:district": "Raipur", "addr:full": "Sai Nagar Devendra Nagar Road", "addr:postcode": "492001", "addr:state": "Chhattisgarh", "amenity": "hospital", "name": "Roopjeevan Hospital", "source": "OpenGovernmentData"}}, {"type": "node", "id": 6965497739, "lat": 21.257246, "lon": 81.6435068, "tags": {"addr:district": "Raipur", "addr:full": "Devendra Nagar", "addr:postcode": "492001", "addr:state": "Chhattisgarh", "amenity": "hospital", "name": "Jubesta Hospital", "source": "OpenGovernmentData"}}, {"type": "node", "id": 6965497744, "lat": 21.2559026, "lon": 81.6448666, "tags": {"addr:district": "Raipur", "addr:full": "B 162, Sector-1, Devendra Nagar", "addr:postcode": "492001", "addr:state": "Chhattisgarh", "amenity": "hospital", "name": "Jain Hospital, Raipur", "source": "OpenGovernmentData"}}, {"type": "node", "id": 6965497749, "lat": 21.2573909, "lon": 81.6466855, "tags": {"addr:district": "Raipur", "addr:full": "Sector-1, B/15, Devendra Nagar", "addr:postcode": "492001", "addr:state": "Chhattisgarh", "amenity": "hospital", "name": "Dr. Rajehwari Kulkarni Surgical Hospital And Dia", "source": "OpenGovernmentData"}}, {"type": "node", "id": 6965497759, "lat": 21.2471211, "lon": 81.6566214, "tags": {"addr:district": "Raipur", "addr:full": "Raipur", "addr:postcode": "492001", "addr:state": "Chhattisgarh", "amenity": "hospital", "name": "Ekta Institute Of Child Health", "source": "OpenGovernmentData"}}, {"type": "node", "id": 6965834121, "lat": 21.2345823, "lon": 81.6097793, "tags": {"addr:district": "Raipur", "addr:full": "Opp:Sunder Nagar Gate Mahender Ghat Road", "addr:postcode": "492001", "addr:state": "Chhattisgarh", "amenity": "hospital", "name": "Ayushman Hospital and Diagnostic Institute", "source": "OpenGovernmentData"}}, {"type": "node", "id": 6965834136, "lat": 21.242349, "lon": 81.6395467, "tags": {"addr:district": "Raipur", "addr:full": "Near Mahila Thana, Aashirwad Bhawan", "addr:postcode": "492001", "addr:state": "Chhattisgarh", "amenity": "hospital", "name": "Bhattar Hospital", "source": "OpenGovernmentData"}}, {"type": "node", "id": 6965834146, "lat": 21.2465523, "lon": 81.6100636, "tags": {"addr:district": "Raipur", "addr:full": "Geeta Nagar, Choubey Colony", "addr:postcode": "492001", "addr:state": "Chhattisgarh", "amenity": "hospital", "name": "City Hospital And Research Centre", "source": "OpenGovernmentData"}}, {"type": "node", "id": 6965834161, "lat": 21.2471581, "lon": 81.6123417, "tags": {"addr:district": "Raipur", "addr:full": "Purani Basti Thana Chowk, Kankalipara Road", "addr:postcode": "492001", "addr:state": "Chhattisgarh", "amenity": "hospital", "name": "Dr. Jaulkar Ent Hospital", "source": "OpenGovernmentData"}}, {"type": "node", "id": 6965834166, "lat": 21.2491114, "lon": 81.6453123, "tags": {"addr:district": "Raipur", "addr:full": "B-20, Ravi Nagar, Near Bus Stand, Pandri", "addr:postcode": "492001", "addr:state": "Chhattisgarh", "amenity": "hospital", "name": "Dr. Sandeep Bhagwat Orthopedic Hospital", "source": "OpenGovernmentData"}}, {"type": "node", "id": 6965834176, "lat": 21.2495993, "lon": 81.6461378, "tags": {"addr:district": "Raipur", "addr:full": "Near New Bus Stand, Beside Rajgharana", "addr:postcode": "492001", "addr:state": "Chhattisgarh", "amenity": "hospital", "name": "Eye and Ent Hospital", "source": "OpenGovernmentData"}}, {"type": "node", "id": 6965836187, "lat": 21.2342586, "lon": 81.645458, "tags": {"addr:district": "Raipur", "addr:full": "Fawara Chowk, Byron Bazar", "addr:postcode": "492001", "addr:state": "Chhattisgarh", "amenity": "hospital", "name": "K G N Surical and Maternity Centre", "source": "OpenGovernmentData"}}, {"type": "node", "id": 6965836192, "lat": 21.2438524, "lon": 81.6384199, "tags": {"addr:district": "Raipur", "addr:full": "Behind Indian Coffee House, Banstal", "addr:postcode": "492001", "addr:state": "Chhattisgarh", "amenity": "hospital", "name": "K.M. Hospital", "source": "OpenGovernmentData"}}, {"type": "node", "id": 6965836221, "lat": 21.2465873, "lon": 81.6236986, "tags": {"addr:district": "Raipur", "addr:full": "358, Samta Colony", "addr:postcode": "492001", "addr:state": "Chhattisgarh", "amenity": "hospital", "name": "M D Hospital and Iccu", "source": "OpenGovernmentData"}}, {"type": "node", "id": 6966551463, "lat": 21.2564347, "lon": 81.6388497, "tags": {"addr:district": "Raipur", "addr:full": "Jail Road", "addr:postcode": "492001", "addr:state": "Chhattisgarh", "amenity": "hospital", "name": "Suprita Hospital", "source": "OpenGovernmentData"}}, {"type": "node", "id": 6966792010, "lat": 21.2456986, "lon": 81.6175885, "tags": {"addr:district": "Raipur", "addr:full": "Main Road, Samata Colony", "addr:postcode": "492001", "addr:state": "Chhattisgarh", "amenity": "hospital", "name": "Lifeworth Super Speciality Hospital", "source": "OpenGovernmentData"}}, {"type": "node", "id": 6966904907, "lat": 21.2363311, "lon": 81.6213289, "tags": {"addr:district": "Raipur", "addr:full": "Lakhe Nagar Chowk, Opposite Mai Ki Bagiya, Lakhe Nagar", "addr:postcode": "492001", "addr:state": "Chhattisgarh", "amenity": "hospital", "name": "Shri Manulal Memorial Medical Centre", "source": "OpenGovernmentData"}}, {"type": "node", "id": 6966904930, "lat": 21.2554704, "lon": 81.6406797, "tags": {"addr:district": "Raipur", "addr:full": "7150, Devendra Nagar, Near Sai Mandir", "addr:postcode": "492001", "addr:state": "Chhattisgarh", "amenity": "hospital", "name": "Sahu Hospital, Raipur", "source": "OpenGovernmentData"}}, {"type": "node", "id": 6966904976, "lat": 21.2454224, "lon": 81.6245992, "tags": {"addr:district": "Raipur", "addr:full": "Opp: Krishna Talkies Ramanath Bhimsen Bhawan", "addr:postcode": "492001", "addr:state": "Chhattisgarh", "amenity": "hospital", "name": "Agrasen Hospital", "source": "OpenGovernmentData"}}, {"type": "node", "id": 6968263373, "lat": 21.251975, "lon": 81.6391427, "tags": {"addr:district": "Raipur", "addr:full": "Pt.Jawaharlal Nehru Memorial Medical College, Jail Road", "addr:postcode": "492001", "addr:state": "Chhattisgarh", "amenity": "hospital", "name": "Pt.J N M Medical College Hospital", "operator:type": "government", "source": "OpenGovernmentData", "website": "https://ptjnmcraipur.in/"}}, {"type": "node", "id": 6968280745, "lat": 21.2468461, "lon": 81.6415286, "tags": {"addr:district": "Raipur", "addr:full": "Kutchery Chowk", "addr:postcode": "492001", "addr:state": "Chhattisgarh", "amenity": "hospital", "name": "Raipur Hospital", "source": "OpenGovernmentData"}}, {"type": "node", "id": 6968280774, "lat": 21.2208074, "lon": 81.6410136, "tags": {"addr:district": "Raipur", "addr:full": "Near Postal Colony, Sanjay Nagar", "addr:postcode": "492001", "addr:state": "Chhattisgarh", "amenity": "hospital", "name": "Sanjeewan Hospital, Raipur", "source": "OpenGovernmentData"}}, {"type": "node", "id": 6968280856, "lat": 21.2359599, "lon": 81.6381209, "tags": {"addr:district": "Raipur", "addr:full": "Bijali Office Chowk, Bhudha Para", "addr:postcode": "492001", "addr:state": "Chhattisgarh", "amenity": "hospital", "name": "Arihant Netralaya", "source": "OpenGovernmentData"}}, {"type": "node", "id": 7048453353, "lat": 21.2488735, "lon": 81.6402908}, {"type": "node", "id": 7048453354, "lat": 21.2504546, "lon": 81.6387143}, {"type": "node", "id": 7048453355, "lat": 21.2503965, "lon": 81.6386627}, {"type": "node", "id": 7048453356, "lat": 21.2491868, "lon": 81.641519}, {"type": "node", "id": 7048453357, "lat": 21.2516245, "lon": 81.6407293}, {"type": "node", "id": 7048453358, "lat": 21.2503054, "lon": 81.6414563}, {"type": "node", "id": 7148125099, "lat": 21.2346921, "lon": 81.6389363, "tags": {"addr:district": "Raipur", "addr:full": "Kali Badi chowk, Raipur", "addr:postcode": "492006", "addr:state": "Chhattisgarh", "addr:subdistrict": "Raipur", "amenity": "hospital", "contact:phone": "07747-248248", "name": "Govt. T.B. Hospital", "source": "OpenGovernmentData"}}, {"type": "node", "id": 7148125202, "lat": 21.23239, "lon": 81.6223248, "tags": {"addr:district": "Raipur", "addr:full": "Chandwada, Patel Para, Raipur", "addr:postcode": "492001", "addr:state": "Chhattisgarh", "addr:subdistrict": "Raipur", "amenity": "hospital", "contact:phone": "07745-264302", "name": "Government hospital,Khokhopara", "source": "OpenGovernmentData"}}, {"type": "node", "id": 7148125255, "lat": 21.2317387, "lon": 81.6401796, "tags": {"addr:district": "Raipur", "addr:full": "Janta Colony, Raipur,", "addr:postcode": "492001", "addr:state": "Chhattisgarh", "amenity": "hospital", "description": "District Hospital", "name": "District Hospital Raipur", "source": "OpenGovernmentData"}}, {"type": "node", "id": 7148125258, "lat": 21.244933, "lon": 81.605817, "tags": {"addr:district": "Raipur", "addr:full": "Great Eastern Road, Near NIt College, opposite to Central Library, Raipur", "addr:postcode": "492001", "addr:state": "Chhattisgarh", "addr:subdistrict": "Raipur", "amenity": "hospital", "name": "Shri Khudadad Dungaji Government Ayurved College Hospital", "source": "OpenGovernmentData"}}, {"type": "node", "id": 7148125308, "lat": 21.2300217, "lon": 81.6598785, "tags": {"addr:district": "Raipur", "addr:full": "Kashiram Nagar, Sai Vihar Colony, Raipur", "addr:postcode": "492001", "addr:state": "Chhattisgarh", "addr:subdistrict": "Raipur", "amenity": "hospital", "name": "Government Hospital", "source": "OpenGovernmentData"}}, {"type": "node", "id": 7288964595, "lat": 21.2261487, "lon": 81.6397097, "tags": {"addr:district": "Raipur", "addr:full": "Raipur Road, RDA Colony, Tikrapara", "addr:postcode": "492001", "addr:state": "Chhattisgarh", "amenity": "hospital", "name": "Shri Balaji Hospital", "source": "OpenGovernmentData"}}, {"type": "node", "id": 7288964599, "lat": 21.2250565, "lon": 81.6531985, "tags": {"addr:district": "Raipur", "addr:full": "Near MLA Guest House, Tagore Nagar, Raipur, Chhattisgarh", "addr:postcode": "492001", "addr:state": "Chhattisgarh", "amenity": "hospital", "name": "Jeevan Anmol Hospital", "source": "OpenGovernmentData"}}, {"type": "node", "id": 7288964603, "lat": 21.223641, "lon": 81.660207, "tags": {"addr:district": "Raipur", "addr:full": "Main Road, Sector 2, Priyadarshini Nagar Colony, New Rajendra Nagar, Raipur", "addr:postcode": "492001", "addr:state": "Chhattisgarh", "amenity": "hospital", "name": "Shri Krishna Hospital", "source": "OpenGovernmentData"}}, {"type": "node", "id": 7288964613, "lat": 21.231624, "lon": 81.6540067, "tags": {"addr:district": "Raipur", "addr:full": "Katora Talab Main Road, Janta Colony, Raipur, Chhattisgarh", "addr:postcode": "492001", "addr:state": "Chhattisgarh", "amenity": "hospital", "name": "Awasthi Hospital", "source": "OpenGovernmentData"}}, {"type": "node", "id": 7288964641, "lat": 21.23854, "lon": 81.62784, "tags": {"addr:district": "Raipur", "addr:full": "Shop Number 7, Kankali hospital Parisar, Tatyapara, Kankalipara Chowk", "addr:postcode": "492001", "addr:state": "Chhattisgarh", "amenity": "hospital", "healthcare": "hospital", "name": "Kankali Hospital Parisar", "source": "OpenGovernmentData"}}, {"type": "node", "id": 7288964642, "lat": 21.22115, "lon": 81.649675, "tags": {"addr:district": "Raipur", "addr:full": "Telibandha Ring Road, Near Panchmukhi Hanuman Temple, Pachpedi Naka, Raipur", "addr:postcode": "492001", "addr:state": "Chhattisgarh", "amenity": "hospital", "name": "Anjali Children Hospital", "source": "OpenGovernmentData"}}, {"type": "node", "id": 7288964648, "lat": 21.2307216, "lon": 81.6449518, "tags": {"addr:district": "Raipur", "addr:full": "Janta Colony,Raipur", "addr:postcode": "492001", "addr:state": "Chhattisgarh", "amenity": "hospital", "name": "District Police Hospital", "source": "OpenGovernmentData"}}, {"type": "node", "id": 7288964653, "lat": 21.2437894, "lon": 81.6504829, "tags": {"addr:district": "Raipur", "addr:full": "Indravati Colony, Raipur", "addr:postcode": "492001", "addr:state": "Chhattisgarh", "amenity": "hospital", "name": "Dr Manoj Agrwal", "source": "OpenGovernmentData"}}, {"type": "node", "id": 7288964666, "lat": 21.2328853, "lon": 81.605519, "tags": {"addr:district": "Raipur", "addr:full": "Mahadev Ghat Road, Maitri Nagar, Sunder Nagar, Raipur", "addr:postcode": "492001", "addr:state": "Chhattisgarh", "amenity": "hospital", "name": "Life Line Hospital", "source": "OpenGovernmentData"}}, {"type": "node", "id": 7288964679, "lat": 21.235824, "lon": 81.63491, "tags": {"addr:district": "Raipur", "addr:full": "Budhapara, Raipur", "addr:postcode": "492001", "addr:state": "Chhattisgarh", "amenity": "hospital", "name": "Vijaya durga hospital", "source": "OpenGovernmentData"}}, {"type": "node", "id": 7288964681, "lat": 21.2190325, "lon": 81.6483451, "tags": {"addr:district": "Raipur", "addr:full": "Pachpedi Naka Road, Laxmi Nagar, Postal Colony, Pachpedi Naka, Raipur, Chhattisgarh", "addr:postcode": "492001", "addr:state": "Chhattisgarh", "amenity": "hospital", "name": "Rajdhani Super Speciality Hospital", "source": "OpenGovernmentData"}}, {"type": "node", "id": 7288964683, "lat": 21.2350371, "lon": 81.6517301, "tags": {"addr:district": "Raipur", "addr:full": "Raipur, Katora Talab, Civil Lines, Raipur", "addr:postcode": "492001", "addr:state": "Chhattisgarh", "amenity": "hospital", "name": "Dr Nigam Hospital", "source": "OpenGovernmentData"}}, {"type": "node", "id": 7288964686, "lat": 21.23422, "lon": 81.610285, "tags": {"addr:district": "Raipur", "addr:full": "Sunder Nagar, Raipur", "addr:postcode": "492013", "addr:state": "Chhattisgarh", "amenity": "hospital", "name": "Shubham Hospital", "source": "OpenGovernmentData"}}, {"type": "node", "id": 7291844243, "lat": 21.2496368, "lon": 81.628347, "tags": {"addr:district": "Raipur", "addr:full": "Moudhapara Link Road, near Gurunanak Chowk, Raipur", "addr:postcode": "492001", "addr:state": "Chhattisgarh", "amenity": "hospital", "name": "Virdi Hospital", "source": "OpenGovernmentData"}}, {"type": "node", "id": 7291844245, "lat": 21.2449632, "lon": 81.6412379, "tags": {"addr:district": "Raipur", "addr:full": "Ghadi chowk, Chhattisgarh", "addr:postcode": "492002", "addr:state": "Chhattisgarh", "amenity": "hospital", "name": "DKS Super Speciality Hospital", "source": "OpenGovernmentData"}}, {"type": "node", "id": 7291844258, "lat": 21.246905, "lon": 81.631597, "tags": {"addr:district": "Raipur", "addr:full": "ramnani gali, Jawahar Nagar, Raipur", "addr:postcode": "492009", "addr:state": "Chhattisgarh", "amenity": "hospital", "name": "Mamta Hospital", "source": "OpenGovernmentData"}}, {"type": "node", "id": 7291844264, "lat": 21.2451108, "lon": 81.6301308, "tags": {"addr:district": "Raipur", "addr:full": "Badaipara, Jawahar Nagar, Raipur", "addr:postcode": "492001", "addr:state": "Chhattisgarh", "amenity": "hospital", "name": "Om Hospital , Burn Plastic & Cosmetic Surgery Center", "source": "OpenGovernmentData"}}, {"type": "node", "id": 7291844281, "lat": 21.2468938, "lon": 81.6485864, "tags": {"addr:district": "Raipur", "addr:full": "Govind Nagar, Raipur", "addr:postcode": "492001", "addr:state": "Chhattisgarh", "amenity": "hospital", "name": "Lotus Hospital & Advance Urology Center", "source": "OpenGovernmentData"}}, {"type": "node", "id": 7291844299, "lat": 21.2463682, "lon": 81.6546202, "tags": {"addr:district": "Raipur", "addr:full": "Fafadih, shantinagar, Raipur", "addr:postcode": "492001", "addr:state": "Chhattisgarh", "amenity": "hospital", "name": "Chand Rani Sardari Lal Speciality EYE And ENT Hospital", "source": "OpenGovernmentData"}}, {"type": "node", "id": 7291844302, "lat": 21.245081, "lon": 81.6245086, "tags": {"addr:district": "Raipur", "addr:full": "Bhimsen bhawan marg, Samta Colony, Raipur", "addr:postcode": "492001", "addr:state": "Chhattisgarh", "amenity": "hospital", "name": "Petals Newborn And Children Hospital", "source": "OpenGovernmentData"}}, {"type": "node", "id": 7291844307, "lat": 21.244077, "lon": 81.630207, "tags": {"addr:district": "Raipur", "addr:full": "Badhai Para Road, Ramya Para, Jorapara, Jawahar Nagar, Raipur", "addr:postcode": "492001", "addr:state": "Chhattisgarh", "amenity": "hospital", "name": "Shashwat Hospital", "source": "OpenGovernmentData"}}, {"type": "node", "id": 10146672430, "lat": 21.2595431, "lon": 81.6556273}, {"type": "node", "id": 10146672431, "lat": 21.260719, "lon": 81.6568096}, {"type": "node", "id": 10146672432, "lat": 21.2615528, "lon": 81.6556509}, {"type": "node", "id": 10146672433, "lat": 21.260447, "lon": 81.6545952}, {"type": "node", "id": 11543216055, "lat": 21.2450191, "lon": 81.6407216}, {"type": "node", "id": 11543216056, "lat": 21.2448854, "lon": 81.6407431}, {"type": "node", "id": 11543216057, "lat": 21.2449216, "lon": 81.6409603}, {"type": "node", "id": 11543216058, "lat": 21.2448341, "lon": 81.6409778}, {"type": "node", "id": 11543216059, "lat": 21.2447854, "lon": 81.6407686}, {"type": "node", "id": 11543216060, "lat": 21.2446716, "lon": 81.6407873}, {"type": "node", "id": 11543216061, "lat": 21.2446929, "lon": 81.6410153}, {"type": "node", "id": 11543216062, "lat": 21.2446654, "lon": 81.641018}, {"type": "node", "id": 11543216063, "lat": 21.2446229, "lon": 81.6408155}, {"type": "node", "id": 11543216064, "lat": 21.2445479, "lon": 81.6408115}, {"type": "node", "id": 11543216065, "lat": 21.2445791, "lon": 81.641018}, {"type": "node", "id": 11543216066, "lat": 21.2445579, "lon": 81.6410193}, {"type": "node", "id": 11543216067, "lat": 21.2445154, "lon": 81.6408182}, {"type": "node", "id": 11543216068, "lat": 21.2443554, "lon": 81.6408665}, {"type": "node", "id": 11543228969, "lat": 21.2443704, "lon": 81.6409764}, {"type": "node", "id": 11543228970, "lat": 21.2443079, "lon": 81.6409872}, {"type": "node", "id": 11543228971, "lat": 21.2442829, "lon": 81.6408611}, {"type": "node", "id": 11543228972, "lat": 21.2440579, "lon": 81.640896}, {"type": "node", "id": 11543228973, "lat": 21.2441241, "lon": 81.6412581}, {"type": "node", "id": 11543228974, "lat": 21.2441954, "lon": 81.6412433}, {"type": "node", "id": 11543228975, "lat": 21.2441979, "lon": 81.6412903}, {"type": "node", "id": 11543228976, "lat": 21.2441279, "lon": 81.6413198}, {"type": "node", "id": 11543228977, "lat": 21.2441491, "lon": 81.6416188}, {"type": "node", "id": 11543228978, "lat": 21.2443141, "lon": 81.6415813}, {"type": "node", "id": 11543228979, "lat": 21.2443266, "lon": 81.6416564}, {"type": "node", "id": 11543228980, "lat": 21.2445754, "lon": 81.6416161}, {"type": "node", "id": 11543228981, "lat": 21.2445416, "lon": 81.6414579}, {"type": "node", "id": 11543228982, "lat": 21.2443479, "lon": 81.6414834}, {"type": "node", "id": 11543228983, "lat": 21.2443104, "lon": 81.6413104}, {"type": "node", "id": 11543228984, "lat": 21.2442779, "lon": 81.6413131}, {"type": "node", "id": 11543228985, "lat": 21.2442791, "lon": 81.6412326}, {"type": "node", "id": 11543228986, "lat": 21.2446629, "lon": 81.6411843}, {"type": "node", "id": 11543228987, "lat": 21.2446916, "lon": 81.6413519}, {"type": "node", "id": 11543228988, "lat": 21.2445491, "lon": 81.6413855}, {"type": "node", "id": 11543228989, "lat": 21.2445866, "lon": 81.641588}, {"type": "node", "id": 11543228990, "lat": 21.2451254, "lon": 81.6415209}, {"type": "way", "id": 468454353, "nodes": [4629903316, 7048453353, 4629903317, 7048453356, 7048453358, 7048453357, 3774669575, 3774669568, 7048453354, 7048453355, 3774667456, 4629903316], "tags": {"addr:district": "Raipur", "addr:full": "Jail Rd, Opp Central jail, Moudhapara, Raipur", "addr:postcode": "492001", "addr:state": "Chhattisgarh", "amenity": "hospital", "name": "Dr. B.R. Ambedkar Memorial Hospital", "name:etymology:wikidata": "Q231690", "source": "OpenGovernmentData"}}, {"type": "way", "id": 579077608, "nodes": [5546788134, 5546788135, 5546788136, 5546788137, 5546788138, 5546788134], "tags": {"addr:district": "Raipur", "addr:full": "Lily Chowk, Purani Basti", "addr:postcode": "492001", "addr:state": "Chhattisgarh", "amenity": "hospital", "healthcare": "hospital", "healthcare:speciality": "gynaecology;surgery", "name": "Shre Ramkinkar Medical Institute Hospital", "operator": "Navneet jain and Karuna jain", "source": "OpenGovernmentData"}}, {"type": "way", "id": 580880614, "nodes": [5559371187, 5559371188, 5559371189, 5559371190, 5559371187], "tags": {"addr:city": "RAIPUR,CHATTISGARH,INDIA", "addr:housenumber": "WARD 24", "addr:postcode": "492001", "addr:street": "Canal Road", "amenity": "hospital", "emergency": "no", "healthcare": "hospital", "healthcare:speciality": "general;DIABETES", "name": "DR SALEEM HOSPITAL", "operator": "DR KAISAR SALEEM"}}, {"type": "way", "id": 1108943435, "nodes": [10146672430, 10146672431, 10146672432, 10146672433, 10146672430], "tags": {"amenity": "hospital", "healthcare": "hospital"}}, {"type": "way", "id": 1242231045, "nodes": [11543216055, 11543216056, 11543216057, 11543216058, 11543216059, 11543216060, 11543216061, 11543216062, 11543216063, 11543216064, 11543216065, 11543216066, 11543216067, 11543216068, 11543228969, 11543228970, 11543228971, 11543228972, 11543228973, 11543228974, 11543228975, 11543228976, 11543228977, 11543228978, 11543228979, 11543228980, 11543228981, 11543228982, 11543228983, 11543228984, 11543228985, 11543228986, 11543228987, 11543228988, 11543228989, 11543228990, 11543216055], "tags": {"amenity": "hospital", "healthcare": "hospital", "name": "DKS Super Speciality Hospital"}}]}