{"version": 0.6, "generator": "Overpass API 0.7.62.8 e802775f", "osm3s": {"timestamp_osm_base": "2025-09-11T19:45:29Z", "copyright": "The data included in this document is from www.openstreetmap.org. The data is made available under ODbL."}, "elements": [{"type": "node", "id": 1634162279, "lat": 22.7539173, "lon": 75.9028029}, {"type": "node", "id": 1634162281, "lat": 22.7537471, "lon": 75.903738}, {"type": "node", "id": 1634162283, "lat": 22.7554276, "lon": 75.9041257}, {"type": "node", "id": 1634162297, "lat": 22.755619, "lon": 75.9033125}, {"type": "node", "id": 2020718350, "lat": 22.7537162, "lon": 75.9036942}, {"type": "node", "id": 6187427616, "lat": 22.7579241, "lon": 75.9020955, "tags": {"addr:city": "Indore", "addr:housenumber": "C-173", "addr:street": "vasant vihar colony", "amenity": "hospital", "email": "yoga@yogaamrutam.com", "facility:ambulance": "no", "facility:blood_bank": "no", "facility:ipd": "no", "facility:opd": "no", "facility:operating_theater": "no", "facility:pathology_labs": "no", "facility:radiology_labs": "no", "facility:ventilator": "no", "hospital:type": "ayush", "name": "Yoga Amrutam", "name:hi": "\u092f\u094b\u0917 \u0905\u092e\u0943\u0924\u092e", "opening_hours": "Mo-Su 06:00-19:15", "operator:type": "government", "personnel:count": "1", "phone": "9826099886", "source": "2C_Indore Field Visit 2019", "website": "https://yogaamrutam.com/"}}, {"type": "node", "id": 6187463098, "lat": 22.7571686, "lon": 75.9026775, "tags": {"addr:city": "indore", "addr:housenumber": "C-46", "addr:street": "basant vihar", "amenity": "hospital", "facility:ayurveda": "yes", "hospital:type": "ayush", "name": "Ayurveda Amratam", "name:hi": "\u0906\u092f\u0941\u0930\u094d\u0935\u0947\u0926 \u0905\u092e\u0943\u0924\u092e", "opening_hours": "Mo-Sa 09:00-10:30,16:00-18:30", "operator:type": "government", "personnel:count": "1", "phone": "9893924049", "source": "2C_Indore Field Visit 2019"}}, {"type": "node", "id": 6187463099, "lat": 22.7575457, "lon": 75.9025743, "tags": {"addr:city": "indore", "addr:housenumber": "C-30/31", "addr:street": "basant vihar", "amenity": "hospital", "email": "akamiindore@gmail.com", "facility:ayurveda": "yes", "facility:naturopathy": "no", "facility:yoga": "no", "hospital:type": "ayush", "name": "AKAMI Ayurveda", "name:hi": "\u0905\u0915\u093e\u092e\u0940 \u0906\u092f\u0941\u0930\u094d\u0935\u0947\u0926", "opening_hours": "24/7", "operator:type": "government", "personnel:count": "22", "phone": "07312557155", "source": "2C_Indore Field Visit 2019"}}, {"type": "node", "id": 6194434080, "lat": 22.7586481, "lon": 75.9075395, "tags": {"addr:city": "Indore", "addr:housenumber": "44", "addr:street": "veena nagar", "amenity": "hospital", "facility:others": "physiotherapy, accupressure, depression counseling", "hospital:type": "ayush", "name": "Aura Health Care", "name:hi": "\u0914\u0930\u093e \u0939\u0948\u0932\u094d\u0925 \u0915\u0947\u092f\u0930", "opening_hours": "Mo-Su 10:00-13:00,16:00-20:00", "operator:type": "government", "personnel:count": "1", "phone": "9425083034", "source": "2C_Indore Field Visit 2019"}}, {"type": "node", "id": 6194434885, "lat": 22.7567963, "lon": 75.9095487, "tags": {"addr:city": "Indore", "addr:housenumber": "577 sector-R", "addr:street": "mahalakshmi nagar", "amenity": "hospital", "facility:homeopathy": "yes", "hospital:type": "ayush", "name": "The Homeopathy", "name:hi": "\u0926 \u0939\u094b\u092e\u094d\u092f\u094b\u092a\u0948\u0925\u0940", "opening_hours": "Mo-Sa 17:00-20:30", "operator:type": "government", "personnel:count": "1", "phone": "9893715751", "source": "2C_Indore Field Visit 2019"}}, {"type": "node", "id": 6200986581, "lat": 22.7436804, "lon": 75.8982834, "tags": {"addr:city": "Indore", "addr:housenumber": "7", "addr:street": "Anil Nagar, MR-9", "amenity": "hospital", "contact:phone": "9827630272", "healthcare": "hospital", "healthcare:speciality": "ophthalmology", "name": "Sankalp Eye Hospital", "name:hi": "\u0938\u0902\u0915\u0932\u094d\u092a \u0906\u0908 \u0939\u0949\u0938\u094d\u092a\u093f\u091f\u0932", "opening_hours": "Mo-Sa 08:00-20:00", "operator:type": "private", "personnel:count": "4", "source": "2C_Indore Field Visit 2019"}}, {"type": "node", "id": 6201821832, "lat": 22.7611505, "lon": 75.9054808, "tags": {"addr:city": "Indore", "addr:district": "Indore", "addr:full": "Wb-22, Scheme No. 94", "addr:housenumber": "WB-22", "addr:postcode": "452010", "addr:state": "Madhya Pradesh", "addr:street": "scheme no.94", "amenity": "hospital", "capacity:beds": "30", "email": "unimedihub@yahoo.in", "facility:ambulance": "yes", "facility:blood_bank": "no", "facility:delivery": "c-section, normal", "facility:ipd": "yes", "facility:opd": "yes", "facility:operating_theater": "yes", "facility:pathology_labs": "yes", "facility:radiology_labs": "yes", "facility:ventilator": "yes", "name": "Universal Hospital and Care Centre", "name:hi": "\u092f\u0942\u0928\u093f\u0935\u0930\u094d\u0938\u0932 \u0939\u0949\u0938\u094d\u092a\u093f\u091f\u0932 \u090f\u0902\u0921 \u0915\u0947\u092f\u0930 \u0938\u0947\u0928\u094d\u091f\u0930", "opening_hours": "24/7", "operator:type": "private", "personnel:count": "40", "phone": "07314035373", "source": "OpenGovernmentData"}}, {"type": "node", "id": 6202194568, "lat": 22.7370978, "lon": 75.9008727, "tags": {"addr:city": "Indore", "addr:housenumber": "47", "addr:street": "Swarn Bagh Colony,Indore", "amenity": "hospital", "capacity:beds": "4", "facility:ambulance": "no", "facility:ipd": "no", "facility:opd": "no", "facility:operating_theater": "no", "facility:pathology_labs": "no", "facility:radiology_labs": "no", "facility:ventilator": "no", "name": "Dayavati Hospital", "name:hi": "\u0926\u092f\u093e\u0935\u0924\u0940 \u0939\u0949\u0938\u094d\u092a\u093f\u091f\u0932", "opening_hours": "Mo-Sa 10:30-13:00,19:00-21:30", "operator:type": "private", "personnel:count": "3", "phone": "+919826590153", "source": "2C_Indore Field Visit 2019"}}, {"type": "node", "id": 6202661069, "lat": 22.7479164, "lon": 75.899411, "tags": {"addr:city": "Indore", "addr:street": "Adarsh Meghdoot Nagar", "amenity": "hospital", "facility:ayurveda": "yes", "hospital:type": "ayush", "name": "Patanjali Home Care", "name:hi": "\u092a\u0924\u0902\u091c\u0932\u093f \u0939\u094b\u092e \u0915\u0947\u092f\u0930", "operator:type": "government", "personnel:count": "2", "phone": "8989400051", "source": "2C_Indore Field Visit 2019"}}, {"type": "node", "id": 6225607524, "lat": 22.7630588, "lon": 75.92358, "tags": {"addr:city": "Indore", "addr:housenumber": "212", "addr:street": "Business iceland, Nipaniya", "amenity": "hospital", "facility:homeopathy": "yes", "hospital:type": "ayush", "name": "Dr Jay Jain", "name:hi": "\u0919\u093e \u091c\u092f \u091c\u0948\u0928", "opening_hours": "Mo-Sa12:00-15:00", "operator:type": "government", "phone": "+919826040864", "source": "2C_Indore Field Visit 2019"}}, {"type": "node", "id": 6225633908, "lat": 22.7623069, "lon": 75.9267738, "tags": {"addr:city": "Indore", "addr:housenumber": "B/143", "addr:street": "Amirt Palace Colony", "amenity": "hospital", "facility:ayurveda": "yes,meditation", "hospital:type": "ayush", "name": "Atharva Yog Meditation And Aayurvedic Clinic", "name:hi": "\u0905\u0925\u0930\u094d\u0935 \u092f\u094b\u0917 \u092e\u0947\u0921\u093f\u091f\u0947\u0936\u0928 \u0914\u0930 \u0906\u092f\u0941\u0930\u094d\u0935\u0947\u0926\u093f\u0915 \u0915\u094d\u0932\u093f\u0928\u093f\u0915", "opening_hours": "Mo-Sa08:00-12:00", "operator:type": "government", "phone": "+919098023446", "source": "2C_Indore Field Visit 2019"}}, {"type": "node", "id": 6226710036, "lat": 22.7630706, "lon": 75.9234325, "tags": {"addr:city": "Indore", "addr:street": "buisness Iceland,opp. samar park,nipania", "amenity": "hospital", "facility:ayurveda": "no", "facility:homeopathy": "yes", "facility:naturopathy": "no", "facility:siddha": "no", "facility:unani": "no", "facility:yogo": "no", "hospital:type": "ayush", "name": "Katyayani's Homeopathy Clinic", "name:hi": "\u0915\u093e\u0924\u094d\u092f\u093e\u092f\u0928\u0940\u0938 \u0939\u094b\u092e\u093f\u092f\u094b\u092a\u0948\u0925\u0940 \u0915\u094d\u0932\u093f\u0928\u093f\u0915", "opening_hours": "Mo-Sa 18:00-21:00", "operator:type": "government", "personnel:count": "1", "phone": "9685184030", "source": "2C_Indore Field Visit 2019"}}, {"type": "node", "id": 6226742775, "lat": 22.7621579, "lon": 75.9260007, "tags": {"addr:city": "Indore", "addr:housenumber": "54", "addr:street": "Samar Park,Nipania", "amenity": "hospital", "facility:ayurveda": "no", "facility:homeopathy": "yes", "facility:naturopathy": "no", "facility:siddha": "no", "facility:unani": "no", "facility:yogo": "no", "hospital:type": "ayush", "name": "Sanjeevani Homeo Clinic", "name:hi": "\u0938\u0902\u091c\u0940\u0935\u0928\u0940 \u0939\u094b\u092e\u093f\u092f\u094b \u0915\u094d\u0932\u093f\u0928\u093f\u0915", "opening_hours": "Mo-Sa 10:00-14:00,16:00-20:00", "operator:type": "government", "personnel:count": "2", "phone": "9827751512", "source": "2C_Indore Field Visit 2019"}}, {"type": "node", "id": 6226760948, "lat": 22.7618393, "lon": 75.9273772, "tags": {"addr:city": "Indore", "addr:street": "amrit palace colony,nipania", "amenity": "hospital", "facility:ayurveda": "no", "facility:homeopathy": "yes", "facility:naturopathy": "no", "facility:siddha": "no", "facility:unani": "no", "facility:yogo": "no", "hospital:type": "ayush", "name": "Homeo Clinic And Research Centre", "name:hi": "\u0939\u094b\u092e\u093f\u092f\u094b \u0915\u094d\u0932\u093f\u0928\u093f\u0915 \u090f\u0902\u0921 \u0930\u093f\u0938\u0930\u094d\u091a \u0938\u0947\u0902\u091f\u0930", "opening_hours": "Mo-Fr 18:00-21:00,Sa-Su 9:00-12:00", "operator:type": "government", "personnel:count": "1", "phone": "9993703346", "source": "2C_Indore Field Visit 2019"}}, {"type": "node", "id": 6229504609, "lat": 22.7706615, "lon": 75.9048629, "tags": {"addr:housenumber": "7", "addr:street": "Gulbbag(Sai Sagar Mandir) Front of Metro Mall,Dewas Naka Maon Road", "amenity": "hospital", "facility:delivery": "c-section", "facility:ipd": "yes", "facility:opd": "yes", "facility:ot": "yes", "name": "Sai Janki Hospital", "name:hi": "\u0938\u093e\u0908\u0902 \u091c\u093e\u0928\u0915\u0940 \u0939\u0949\u0938\u094d\u092a\u093f\u091f\u0932", "opening_hours": "Mo-Sa 09:00-23:00", "personnel:count": "20"}}, {"type": "node", "id": 6341409407, "lat": 22.7371869, "lon": 75.9008785}, {"type": "node", "id": 6341409408, "lat": 22.7371572, "lon": 75.9008811}, {"type": "node", "id": 6341409409, "lat": 22.7371572, "lon": 75.9008986}, {"type": "node", "id": 6341409410, "lat": 22.7371263, "lon": 75.9008972}, {"type": "node", "id": 6341409411, "lat": 22.7371287, "lon": 75.9007886}, {"type": "node", "id": 6341409412, "lat": 22.7371869, "lon": 75.9007832}, {"type": "node", "id": 6341865025, "lat": 22.7569383, "lon": 75.911993, "tags": {"addr:city": "Indore", "addr:housenumber": "651", "addr:street": "mahalaxmi nagar", "amenity": "hospital", "capacity:beds": "23", "facility:ambulance": "no", "facility:delivery": "c-section, normal", "facility:ipd": "yes", "facility:opd": "yes", "facility:operating_theater": "yes", "facility:pathology_labs": "yes", "facility:ventilator": "no", "healthcare:speciality": "general, gynecologist, physiologist, pediatrician", "name": "Kibs Hospital", "name:hi": "\u0915\u0948\u092c\u094d\u0938 \u0939\u0949\u0938\u094d\u092a\u093f\u091f\u0932", "opening_hours": "24/7", "operator:type": "private", "personnel:count": "25", "phone": "07312556663", "source": "2C_Indore Field Visit 2019"}}, {"type": "node", "id": 7013474321, "lat": 22.7660113, "lon": 75.9004875, "tags": {"addr:district": "Indore", "addr:full": "Lg 37 and38,Bcm Heights,A5,Pu4,Bombay Hospital Link Road", "addr:postcode": "452001", "addr:state": "Madhya Pradesh", "amenity": "hospital", "name": "Saluja Eye Care Center", "source": "OpenGovernmentData"}}, {"type": "node", "id": 11693035975, "lat": 22.754573, "lon": 75.9036966, "tags": {"amenity": "hospital", "healthcare": "hospital", "name": "bombay hospital"}}, {"type": "way", "id": 150514180, "nodes": [1634162281, 1634162283, 1634162297, 1634162279, 2020718350, 1634162281], "tags": {"addr:city": "Indore", "addr:street": "Scheme No. 94/95, Eastern Ring Road, Tulsi Nagar, Vijyanagar, Indore", "alt_name": "The Bombay Hospital Indore", "amenity": "hospital", "capacity:beds": "1269", "emergency": "yes", "facility:ambulance": "yes", "facility:delivery": "c-section, normal", "facility:ipd": "yes", "facility:opd": "yes", "facility:operating_theater": "yes", "facility:pathology_labs": "yes", "facility:radiology_labs": "yes", "facility:ventilator": "yes", "healthcare:speciality": "cardiologist, dentist, dermatologist,general, gynecologist, neurologist, obstetrician, oncologist, ophthalmologist, Orthopedic, physiologist, plastic_surgeon, psychiatrist, radiologist, urologist", "name": "Bombay Hospital", "name:hi": "\u092c\u0949\u092e\u094d\u092c\u0947 \u0939\u0949\u0938\u094d\u092a\u093f\u091f\u0932", "opening_hours": "24/7", "operator:type": "private", "phone": "07312558866", "source": "2C_Indore Field Visit 2019", "url": "http://www.bombayhospitalindore.com/", "website": "https://www.bombayhospitalindore.com/"}}, {"type": "way", "id": 677245552, "nodes": [6341409412, 6341409411, 6341409410, 6341409409, 6341409408, 6341409407, 6341409412], "tags": {"addr:city": "Indore", "addr:housenumber": "47", "addr:street": "Swarn Bagh Colony, Khajarana, Ring Road", "amenity": "hospital", "facility:pathology_labs": "yes", "facility:radiology_labs": "yes", "healthcare:speciality": "general, gynecologist, obstetrician", "name": "Dyavati Hospital", "name:hi": "\u0926\u092f\u093e\u0935\u0924\u0940 \u0939\u0949\u0938\u094d\u092a\u093f\u091f\u0932", "opening_hours": "24/7", "operator:type": "private", "phone": "9826590135", "source": "2C_Indore Field Visit 2019"}}]}